start=new Date('2022-08-28T00:00:00.000Z').valueOf();
sats=[{"CENTER_NAME":"EARTH","TLE_LINE1":"1 48283U 21036H   22239.88098361  .00000468  00000-0  50326-4 0  9996","OBJECT_NAME":"STARLINK-2516","BSTAR":"0.00005032600000","OBJECT_ID":"2021-036H","PERIOD":"95.593","ARG_OF_PERICENTER":"82.9627","MEAN_MOTION_DDOT":"0.0000000000000","COUNTRY_CODE":"US","PERIAPSIS":"546.345","MEAN_ANOMALY":"277.1508","REF_FRAME":"TEME","INCLINATION":"53.0539","DECAY_DATE":null,"MEAN_MOTION_DOT":"0.00000468","APOAPSIS":"548.126","OBJECT_TYPE":"PAYLOAD","RCS_SIZE":"MEDIUM","GP_ID":"211135163","CLASSIFICATION_TYPE":"U","MEAN_MOTION":"15.06392947","RA_OF_ASC_NODE":"111.8030","ECCENTRICITY":"0.00012860","EPOCH":"2022-08-27T21:08:36.983904","TLE_LINE2":"2 48283  53.0539 111.8030 0001286  82.9627 277.1508 15.06392947 73913","SITE":"AFETR","TIME_SYSTEM":"UTC","SEMIMAJOR_AXIS":"6925.370","MEAN_ELEMENT_THEORY":"SGP4","ELEMENT_SET_NO":"999","LAUNCH_DATE":"2021-04-29","FILE":"3548882","EPHEMERIS_TYPE":"0","REV_AT_EPOCH":"7391","NORAD_CAT_ID":"48283"},{"DECAY_DATE":null,"MEAN_MOTION_DOT":"0.00000111","APOAPSIS":"548.127","RCS_SIZE":"LARGE","OBJECT_TYPE":"PAYLOAD","GP_ID":"211135414","CLASSIFICATION_TYPE":"U","MEAN_MOTION":"15.06397541","RA_OF_ASC_NODE":"111.8093","ECCENTRICITY":"0.00013080","EPOCH":"2022-08-27T21:03:18.784800","TLE_LINE2":"2 48284  53.0548 111.8093 0001308  87.4719 272.6420 15.06397541 73907","SITE":"AFETR","SEMIMAJOR_AXIS":"6925.356","TIME_SYSTEM":"UTC","MEAN_ELEMENT_THEORY":"SGP4","ELEMENT_SET_NO":"999","LAUNCH_DATE":"2021-04-29","FILE":"3548882","EPHEMERIS_TYPE":"0","REV_AT_EPOCH":"7390","NORAD_CAT_ID":"48284","CENTER_NAME":"EARTH","TLE_LINE1":"1 48284U 21036J   22239.87730075  .00000111  00000-0  26377-4 0  9995","OBJECT_NAME":"STARLINK-2564","BSTAR":"0.00002637700000","OBJECT_ID":"2021-036J","PERIOD":"95.592","ARG_OF_PERICENTER":"87.4719","MEAN_MOTION_DDOT":"0.0000000000000","COUNTRY_CODE":"US","PERIAPSIS":"546.315","MEAN_ANOMALY":"272.6420","REF_FRAME":"TEME","INCLINATION":"53.0548"},{"TIME_SYSTEM":"UTC","SITE":"AFETR","SEMIMAJOR_AXIS":"6925.328","MEAN_ELEMENT_THEORY":"SGP4","ELEMENT_SET_NO":"999","LAUNCH_DATE":"2021-04-29","FILE":"3548695","REV_AT_EPOCH":"7448","EPHEMERIS_TYPE":"0","NORAD_CAT_ID":"48285","EPOCH":"2022-08-27T20:56:37.856832","TLE_LINE2":"2 48285  53.0544 111.8288 0001494  83.0267 277.0892 15.06406795 74484","MEAN_MOTION":"15.06406795","RA_OF_ASC_NODE":"111.8288","ECCENTRICITY":"0.00014940","DECAY_DATE":null,"MEAN_MOTION_DOT":"0.00001117","APOAPSIS":"548.227","OBJECT_TYPE":"PAYLOAD","RCS_SIZE":"LARGE","GP_ID":"211109106","CLASSIFICATION_TYPE":"U","PERIAPSIS":"546.158","MEAN_ANOMALY":"277.0892","REF_FRAME":"TEME","INCLINATION":"53.0544","PERIOD":"95.592","OBJECT_ID":"2021-036K","ARG_OF_PERICENTER":"83.0267","COUNTRY_CODE":"US","MEAN_MOTION_DDOT":"0.0000000000000","TLE_LINE1":"1 48285U 21036K   22239.87266038  .00001117  00000-0  93840-4 0  9995","OBJECT_NAME":"STARLINK-2548","BSTAR":"0.00009384000000","CENTER_NAME":"EARTH"},{"NORAD_CAT_ID":"48286","FILE":"3548882","REV_AT_EPOCH":"7390","EPHEMERIS_TYPE":"0","LAUNCH_DATE":"2021-04-29","ELEMENT_SET_NO":"999","MEAN_ELEMENT_THEORY":"SGP4","SEMIMAJOR_AXIS":"6925.328","SITE":"AFETR","TIME_SYSTEM":"UTC","TLE_LINE2":"2 48286  53.0549 111.8595 0001517  88.6286 271.4877 15.06406870 73900","EPOCH":"2022-08-27T20:52:41.248704","ECCENTRICITY":"0.00015170","RA_OF_ASC_NODE":"111.8595","MEAN_MOTION":"15.06406870","CLASSIFICATION_TYPE":"U","GP_ID":"211134420","OBJECT_TYPE":"PAYLOAD","RCS_SIZE":"LARGE","APOAPSIS":"548.243","MEAN_MOTION_DOT":"-0.00000065","DECAY_DATE":null,"INCLINATION":"53.0549","REF_FRAME":"TEME","MEAN_ANOMALY":"271.4877","PERIAPSIS":"546.142","COUNTRY_CODE":"US","MEAN_MOTION_DDOT":"0.0000000000000","OBJECT_ID":"2021-036L","PERIOD":"95.592","ARG_OF_PERICENTER":"88.6286","BSTAR":"0.00001451600000","OBJECT_NAME":"STARLINK-2547","TLE_LINE1":"1 48286U 21036L   22239.86992186 -.00000065  00000-0  14516-4 0  9990","CENTER_NAME":"EARTH"},{"REF_FRAME":"TEME","INCLINATION":"53.0553","MEAN_ANOMALY":"284.7434","PERIAPSIS":"546.087","OBJECT_ID":"2021-036M","PERIOD":"95.592","ARG_OF_PERICENTER":"75.3734","MEAN_MOTION_DDOT":"0.0000000000000","COUNTRY_CODE":"US","BSTAR":"0.00016221000000","OBJECT_NAME":"STARLINK-2566","TLE_LINE1":"1 48287U 21036M   22239.73354379  .00002136  00000-0  16221-3 0  9997","CENTER_NAME":"EARTH","LAUNCH_DATE":"2021-04-29","ELEMENT_SET_NO":"999","NORAD_CAT_ID":"48287","REV_AT_EPOCH":"7388","FILE":"3548882","EPHEMERIS_TYPE":"0","SEMIMAJOR_AXIS":"6925.342","SITE":"AFETR","TIME_SYSTEM":"UTC","MEAN_ELEMENT_THEORY":"SGP4","TLE_LINE2":"2 48287  53.0553 112.4668 0001617  75.3734 284.7434 15.06402269 73887","EPOCH":"2022-08-27T17:36:18.183456","RA_OF_ASC_NODE":"112.4668","ECCENTRICITY":"0.00016170","MEAN_MOTION":"15.06402269","OBJECT_TYPE":"PAYLOAD","RCS_SIZE":"LARGE","CLASSIFICATION_TYPE":"U","GP_ID":"211134670","DECAY_DATE":null,"APOAPSIS":"548.326","MEAN_MOTION_DOT":"0.00002136"},{"DECAY_DATE":null,"APOAPSIS":"548.267","MEAN_MOTION_DOT":"0.00000572","OBJECT_TYPE":"PAYLOAD","RCS_SIZE":"LARGE","GP_ID":"211102407","CLASSIFICATION_TYPE":"U","MEAN_MOTION":"15.06400829","RA_OF_ASC_NODE":"115.4487","ECCENTRICITY":"0.00015250","TLE_LINE2":"2 48288  53.0541 115.4487 0001525  72.2905 287.8250 15.06400829 73780","EPOCH":"2022-08-27T01:34:14.772864","SITE":"AFETR","SEMIMAJOR_AXIS":"6925.346","TIME_SYSTEM":"UTC","MEAN_ELEMENT_THEORY":"SGP4","LAUNCH_DATE":"2021-04-29","ELEMENT_SET_NO":"999","NORAD_CAT_ID":"48288","FILE":"3548622","EPHEMERIS_TYPE":"0","REV_AT_EPOCH":"7378","CENTER_NAME":"EARTH","OBJECT_NAME":"STARLINK-2562","TLE_LINE1":"1 48288U 21036N   22239.06544876  .00000572  00000-0  57290-4 0  9991","BSTAR":"0.00005729000000","OBJECT_ID":"2021-036N","PERIOD":"95.592","ARG_OF_PERICENTER":"72.2905","MEAN_MOTION_DDOT":"0.0000000000000","COUNTRY_CODE":"US","MEAN_ANOMALY":"287.8250","PERIAPSIS":"546.155","REF_FRAME":"TEME","INCLINATION":"53.0541"},{"PERIAPSIS":"545.955","MEAN_ANOMALY":"286.1239","INCLINATION":"53.0551","REF_FRAME":"TEME","MEAN_MOTION_DDOT":"0.0000000000000","COUNTRY_CODE":"US","OBJECT_ID":"2021-036P","PERIOD":"95.591","ARG_OF_PERICENTER":"73.9944","TLE_LINE1":"1 48289U 21036P   22239.85885864  .00000179  00000-0  30936-4 0  9995","OBJECT_NAME":"STARLINK-2545","BSTAR":"0.00003093600000","CENTER_NAME":"EARTH","MEAN_ELEMENT_THEORY":"SGP4","SITE":"AFETR","TIME_SYSTEM":"UTC","SEMIMAJOR_AXIS":"6925.313","EPHEMERIS_TYPE":"0","FILE":"3548882","REV_AT_EPOCH":"7390","NORAD_CAT_ID":"48289","ELEMENT_SET_NO":"999","LAUNCH_DATE":"2021-04-29","EPOCH":"2022-08-27T20:36:45.386496","TLE_LINE2":"2 48289  53.0551 111.8932 0001766  73.9944 286.1239 15.06411613 73901","MEAN_MOTION":"15.06411613","ECCENTRICITY":"0.00017660","RA_OF_ASC_NODE":"111.8932","APOAPSIS":"548.401","MEAN_MOTION_DOT":"0.00000179","DECAY_DATE":null,"GP_ID":"211136128","CLASSIFICATION_TYPE":"U","OBJECT_TYPE":"PAYLOAD","RCS_SIZE":"LARGE"},{"CENTER_NAME":"EARTH","BSTAR":"0.00007980500000","OBJECT_NAME":"STARLINK-2540","TLE_LINE1":"1 48290U 21036Q   22239.05902348  .00000907  00000-0  79805-4 0  9993","COUNTRY_CODE":"US","MEAN_MOTION_DDOT":"0.0000000000000","OBJECT_ID":"2021-036Q","PERIOD":"95.592","ARG_OF_PERICENTER":"85.3074","INCLINATION":"53.0532","REF_FRAME":"TEME","MEAN_ANOMALY":"274.8089","PERIAPSIS":"546.172","GP_ID":"211103407","CLASSIFICATION_TYPE":"U","RCS_SIZE":"LARGE","OBJECT_TYPE":"PAYLOAD","APOAPSIS":"548.282","MEAN_MOTION_DOT":"0.00000907","DECAY_DATE":null,"ECCENTRICITY":"0.00015240","RA_OF_ASC_NODE":"115.4842","MEAN_MOTION":"15.06395590","TLE_LINE2":"2 48290  53.0532 115.4842 0001524  85.3074 274.8089 15.06395590 73783","EPOCH":"2022-08-27T01:24:59.628672","NORAD_CAT_ID":"48290","FILE":"3548622","REV_AT_EPOCH":"7378","EPHEMERIS_TYPE":"0","LAUNCH_DATE":"2021-04-29","ELEMENT_SET_NO":"999","MEAN_ELEMENT_THEORY":"SGP4","TIME_SYSTEM":"UTC","SITE":"AFETR","SEMIMAJOR_AXIS":"6925.362"},{"RA_OF_ASC_NODE":"115.4983","ECCENTRICITY":"0.00017130","MEAN_MOTION":"15.06401076","RCS_SIZE":"LARGE","OBJECT_TYPE":"PAYLOAD","GP_ID":"211104155","CLASSIFICATION_TYPE":"U","DECAY_DATE":null,"MEAN_MOTION_DOT":"0.00001067","APOAPSIS":"548.397","LAUNCH_DATE":"2021-04-29","ELEMENT_SET_NO":"999","NORAD_CAT_ID":"48291","FILE":"3548622","EPHEMERIS_TYPE":"0","REV_AT_EPOCH":"7378","SEMIMAJOR_AXIS":"6925.345","SITE":"AFETR","TIME_SYSTEM":"UTC","MEAN_ELEMENT_THEORY":"SGP4","TLE_LINE2":"2 48291  53.0537 115.4983 0001713  75.4026 284.7153 15.06401076 73781","EPOCH":"2022-08-27T01:19:41.332800","BSTAR":"0.00009055300000","OBJECT_NAME":"STARLINK-2555","TLE_LINE1":"1 48291U 21036R   22239.05533950  .00001067  00000-0  90553-4 0  9994","CENTER_NAME":"EARTH","REF_FRAME":"TEME","INCLINATION":"53.0537","PERIAPSIS":"546.024","MEAN_ANOMALY":"284.7153","ARG_OF_PERICENTER":"75.4026","PERIOD":"95.592","OBJECT_ID":"2021-036R","MEAN_MOTION_DDOT":"0.0000000000000","COUNTRY_CODE":"US"},{"CENTER_NAME":"EARTH","BSTAR":"0.00006047300000","OBJECT_NAME":"STARLINK-2542","TLE_LINE1":"1 48292U 21036S   22239.06641440  .00000619  00000-0  60473-4 0  9990","MEAN_MOTION_DDOT":"0.0000000000000","COUNTRY_CODE":"US","OBJECT_ID":"2021-036S","PERIOD":"95.592","ARG_OF_PERICENTER":"72.9803","INCLINATION":"53.0556","REF_FRAME":"TEME","PERIAPSIS":"545.988","MEAN_ANOMALY":"287.1379","CLASSIFICATION_TYPE":"U","GP_ID":"211102908","RCS_SIZE":"LARGE","OBJECT_TYPE":"PAYLOAD","APOAPSIS":"548.433","MEAN_MOTION_DOT":"0.00000619","DECAY_DATE":null,"ECCENTRICITY":"0.00017650","RA_OF_ASC_NODE":"115.6307","MEAN_MOTION":"15.06400950","TLE_LINE2":"2 48292  53.0556 115.6307 0001765  72.9803 287.1379 15.06400950 73784","EPOCH":"2022-08-27T01:35:38.204160","NORAD_CAT_ID":"48292","REV_AT_EPOCH":"7378","FILE":"3548622","EPHEMERIS_TYPE":"0","LAUNCH_DATE":"2021-04-29","ELEMENT_SET_NO":"999","MEAN_ELEMENT_THEORY":"SGP4","SEMIMAJOR_AXIS":"6925.346","SITE":"AFETR","TIME_SYSTEM":"UTC"}];
